PROGRESS-MS 23          
1 56740U 23071A   23171.47030933  .00015132  00000+0  27057-3 0  9993
2 56740  51.6411 312.2546 0004532  62.0318 298.1129 15.50208412402308
2023-072A               
1 56743U 23072A   23172.05793482  .00004831  00000+0  32395-3 0  9992
2 56743  97.5427 358.8499 0008126 197.8021 162.2923 15.07292623  4019
SNIPE 4                 
1 56744U 23072B   23171.85756017  .00006539  00000+0  43565-3 0  9991
2 56744  97.5512 358.6860 0008119 199.7258 160.3657 15.07402223  3987
SNIPE 2                 
1 56745U 23072C   23171.98798903  .00006498  00000+0  43132-3 0  9990
2 56745  97.5521 358.8221 0008332 202.5419 157.5444 15.07539529  4006
2023-072D               
1 56746U 23072D   23172.05159951  .00007174  00000+0  47346-3 0  9997
2 56746  97.5523 358.8909 0008579 205.7084 154.3719 15.07717738  4019
2023-072E               
1 56747U 23072E   23172.11551172  .00006646  00000+0  43745-3 0  9998
2 56747  97.5524 358.9595 0009033 208.3701 151.7036 15.07838071  4022
2023-072F               
1 56748U 23072F   23172.11489545  .00005342  00000+0  35234-3 0  9999
2 56748  97.5318 358.8906 0009268 209.0051 151.0663 15.07848510  4023
2023-072G               
1 56749U 23072G   23172.11220004  .00006313  00000+0  41364-3 0  9993
2 56749  97.5325 358.8965 0009617 212.0037 148.0608 15.08024849  4020
2023-072H               
1 56750U 23072H   23171.72799972  .00004319  00000+0  23532-3 0  9997
2 56750  97.5377 358.8055 0017732 186.5229 173.5775 15.14811288  3984
ELECTRON KICK STAGE R/B 
1 56752U 23073A   23171.68426202  .00010446  00000+0  67703-3 0  9994
2 56752  32.7373  45.9867 0011494  96.8377 263.3600 15.07053342  3856
TROPICS-03              
1 56753U 23073B   23172.01925953  .00009755  00000+0  63689-3 0  9990
2 56753  32.7377  43.9360 0010156 112.1392 248.0356 15.06788085  3889
TROPICS-07              
1 56754U 23073C   23171.73537999  .00009804  00000+0  62006-3 0  9995
2 56754  32.7380  45.4470 0014553 100.7275 259.5033 15.07908889  3865
ELECTRON R/B            
1 56755U 23073D   23171.72973505  .00015897  00000+0  99357-3 0  9990
2 56755  35.4653  51.3712 0023538  45.5980 314.6661 15.08458529  3868
COSMOS 2569             
1 56756U 23074A   23172.11297968  .00005432  00000+0  26423-3 0  9996
2 56756  97.4374   6.5001 0001486  89.4082 270.7322 15.18810320  3833
ARABSAT-7B (BADR-8)     
1 56757U 23075A   23170.96622053 -.00000236  00000+0  00000+0 0  9993
2 56757  17.3977 144.1118 7632183 184.9807 156.2196  0.99464882   261
FALCON 9 R/B            
1 56758U 23075B   23170.80574087 -.00000127  00000+0  57885-3 0  9996
2 56758  27.8739 144.0781 8175021 186.5456 143.2611  1.20343645   278
IRNSS-1J (NVS-01)       
1 56759U 23076A   23171.67583377 -.00000328  00000+0  00000+0 0  9992
2 56759   4.9299 273.5138 0004459 357.1500  10.7694  1.00269421   168
GSLV R/B                
1 56760U 23076B   23171.50135875  .00165001  70511-6  49052-2 0  9995
2 56760  19.1699 261.5501 7490448 192.7571 123.9675  2.06265388   462
SHENZHOU-16 (SZ-16)     
1 56761U 23077A   23171.36701763  .00000110  00000+0  55162-5 0  9996
2 56761  41.4745 136.5572 0004828  87.3344 272.8047 15.59311537122333
STARLINK-6197           
1 56767U 23078A   23172.07708217  .00048109  00000+0  39933-3 0  9999
2 56767  70.0006 354.8330 0003821 270.1970  89.8787 15.69937082  3574
STARLINK-6198           
1 56768U 23078B   23172.07655577  .00045175  00000+0  37537-3 0  9998
2 56768  70.0004 354.8335 0003820 275.1667  84.9093 15.69926868  3571
STARLINK-5978           
1 56769U 23078C   23172.07687122  .00043688  00000+0  36314-3 0  9999
2 56769  70.0002 354.8338 0003931 274.4987  85.5759 15.69926379  3576
STARLINK-6342           
1 56770U 23078D   23172.07697349  .00048702  00000+0  40399-3 0  9993
2 56770  70.0001 354.8347 0004031 276.3571  83.7166 15.69948991  3575
STARLINK-6339           
1 56771U 23078E   23172.07645041  .00048655  00000+0  40397-3 0  9991
2 56771  70.0008 354.8308 0003690 274.8525  85.2250 15.69928404  3570
STARLINK-6275           
1 56772U 23078F   23172.07676549  .00023143  00000+0  19358-3 0  9997
2 56772  70.0000 354.8336 0004125 274.9433  85.1292 15.69936849  3574
STARLINK-6296           
1 56773U 23078G   23172.07634514  .00051134  00000+0  42434-3 0  9996
2 56773  70.0008 354.8300 0003764 276.7278  83.3489 15.69927937  3575
STARLINK-6190           
1 56774U 23078H   23172.07665986  .00049300  00000+0  40918-3 0  9991
2 56774  70.0003 354.8324 0003990 271.6566  88.4173 15.69932466  3571
STARLINK-6292           
1 56775U 23078J   23172.07581737  .00018783  00000+0  15754-3 0  9994
2 56775  70.0007 354.8288 0003696 275.7069  84.3705 15.69935769  3576
STARLINK-6274           
1 56776U 23078K   23172.07623942  .00052301  00000+0  43379-3 0  9998
2 56776  70.0002 354.8310 0003740 271.0862  88.9905 15.69935731  3579
STARLINK-5582           
1 56777U 23078L   23172.16667824 -.00071698  00000+0 -59890-3 0  9993
2 56777  70.0004 354.5701 0003676 274.5892 240.6315 15.69950456  3586
STARLINK-6304           
1 56778U 23078M   23171.91667824  .00047143  00000+0  39197-3 0  9990
2 56778  70.0000 355.2800 0003726 280.6097 258.5478 15.69901827  1306
STARLINK-6231           
1 56779U 23078N   23172.07497454  .00049463  00000+0  41051-3 0  9998
2 56779  70.0008 354.8241 0003697 271.9281  88.1491 15.69934062  3574
STARLINK-5963           
1 56780U 23078P   23172.07539566  .00019226  00000+0  16121-3 0  9995
2 56780  70.0005 354.8275 0003690 274.2455  85.8319 15.69935924  3573
STARLINK-5989           
1 56781U 23078Q   23171.91667824  .00069405  00000+0  57508-3 0  9995
2 56781  70.0010 355.2655 0003481 272.3883 275.7090 15.69887334  1305
STARLINK-6352           
1 56782U 23078R   23172.07602758  .00019574  00000+0  16409-3 0  9996
2 56782  70.0003 354.8309 0003906 273.6675  86.4074 15.69934243  3576
STARLINK-6357           
1 56783U 23078S   23171.91667824  .00066091  00000+0  54786-3 0  9990
2 56783  70.0005 355.2749 0003687 273.9849 267.5597 15.69889089  1302
STARLINK-6354           
1 56784U 23078T   23172.07592419  .00046224  00000+0  38404-3 0  9991
2 56784  70.0004 354.8301 0003634 280.9969  79.0818 15.69925244  3571
STARLINK-5931           
1 56785U 23078U   23172.07476478  .00011182  00000+0  94633-4 0  9990
2 56785  70.0006 354.8248 0003609 270.0586  90.0196 15.69925613  3573
STARLINK-6341           
1 56786U 23078V   23172.07560677  .00028964  00000+0  24159-3 0  9997
2 56786  70.0001 354.8299 0003705 277.7319  82.3456 15.69944968  3577
STARLINK-6326           
1 56787U 23078W   23172.07508043  .00015652  00000+0  13165-3 0  9992
2 56787  70.0007 354.8246 0003763 271.8054  88.2711 15.69930266  3576
STARLINK-6336           
1 56788U 23078X   23172.07529157  .00058659  00000+0  48600-3 0  9998
2 56788  70.0006 354.8273 0003834 279.7609  80.3154 15.69932234  3579
STARLINK-6325           
1 56789U 23078Y   23172.07402695  .00013466  00000+0  11355-3 0  9990
2 56789  70.0008 354.8219 0003659 273.7712  86.3065 15.69929375  3575
STARLINK-6345           
1 56790U 23078Z   23172.07518535  .00028911  00000+0  24121-3 0  9999
2 56790  70.0003 354.8265 0003741 274.5936  85.4832 15.69939522  3579
STARLINK-5977           
1 56791U 23078AA  23172.07434353  .00010127  00000+0  85886-4 0  9991
2 56791  70.0010 354.8210 0003544 271.2965  88.7825 15.69923269  3574
STARLINK-6046           
1 56792U 23078AB  23172.07486962  .00021631  00000+0  18110-3 0  9992
2 56792  70.0007 354.8233 0003772 277.2736  82.8031 15.69936052  3579
STARLINK-6052           
1 56793U 23078AC  23171.91667824  .00072531  00000+0  60078-3 0  9998
2 56793  70.0006 355.2590 0003343 277.3117 276.7406 15.69883593  1308
STARLINK-6060           
1 56794U 23078AD  23171.91667824  .00064925  00000+0  53836-3 0  9991
2 56794  70.0001 355.2680 0003529 275.3252 273.3697 15.69887033  1306
STARLINK-6061           
1 56795U 23078AE  23171.91667824  .00067553  00000+0  55993-3 0  9998
2 56795  70.0007 355.2545 0003624 276.8007 280.8270 15.69885642  1307
STARLINK-6049           
1 56796U 23078AF  23172.07465896  .00024370  00000+0  20376-3 0  9999
2 56796  70.0008 354.8234 0003518 270.0914  89.9879 15.69934823  3574
STARLINK-6058           
1 56797U 23078AG  23172.07371063  .00046429  00000+0  38566-3 0  9991
2 56797  70.0012 354.8175 0003414 270.7787  89.3018 15.69930320  3571
STARLINK-6068           
1 56798U 23078AH  23172.07423677  .00051327  00000+0  42581-3 0  9996
2 56798  70.0008 354.8211 0003599 272.3932  87.6851 15.69935390  3570
STARLINK-5953           
1 56799U 23078AJ  23172.07233987  .00038311  00000+0  31883-3 0  9991
2 56799  70.0010 354.8126 0003653 273.5318  86.5460 15.69930619  3574
STARLINK-6036           
1 56800U 23078AK  23172.07413190  .00047080  00000+0  39103-3 0  9996
2 56800  70.0009 354.8214 0003631 270.9664  89.1116 15.69928441  3571
STARLINK-6087           
1 56801U 23078AL  23172.07307549  .00037492  00000+0  31211-3 0  9995
2 56801  70.0009 354.8159 0003381 273.8299  86.2510 15.69929385  3572
STARLINK-6070           
1 56802U 23078AM  23172.07381607  .00045108  00000+0  37482-3 0  9992
2 56802  70.0010 354.8193 0003509 271.4261  88.6533 15.69928186  3577
STARLINK-6029           
1 56803U 23078AN  23171.91667824  .00061080  00000+0  50681-3 0  9996
2 56803  70.0007 355.2569 0003546 274.8811 280.3625 15.69887204  1302
STARLINK-6069           
1 56804U 23078AP  23172.07392105  .00043557  00000+0  36203-3 0  9995
2 56804  70.0009 354.8202 0003511 271.6514  88.4279 15.69930429  3572
STARLINK-6064           
1 56805U 23078AQ  23171.91667824  .00047568  00000+0  39557-3 0  9992
2 56805  70.0008 355.2573 0003594 273.8202 280.8240 15.69896210  1301
STARLINK-6072           
1 56806U 23078AR  23171.91667824  .00063287  00000+0  52494-3 0  9994
2 56806  70.0005 355.2600 0003529 275.0698 278.3907 15.69886302  1304
